IRIDIUM 116             
1 43072U 17083C   23272.38573943  .00000531  00000+0  18240-3 0  9999
2 43072  86.4024  16.5120 0002191  99.6424 260.5019 14.34217690302010
IRIDIUM 130             
1 43073U 17083D   23271.79587087  .00000147  00000+0  45364-4 0  9999
2 43073  86.4035  16.9371 0002228  93.0228 267.1223 14.34216114301879
IRIDIUM 151             
1 43074U 17083E   23271.84026771  .00000438  00000+0  14921-3 0  9991
2 43074  86.4026  16.7747 0002272  96.4682 263.6772 14.34214994301903
IRIDIUM 134             
1 43075U 17083F   23272.36670399  .00000119  00000+0  35336-4 0  9991
2 43075  86.4029  16.5498 0001956  88.9861 271.1559 14.34216631301942
IRIDIUM 137             
1 43076U 17083G   23271.82123874  .00000507  00000+0  17408-3 0  9993
2 43076  86.4027  16.8504 0002176 101.3594 258.7846 14.34219936301930
IRIDIUM 141             
1 43077U 17083H   23271.95443327  .00000519  00000+0  17826-3 0  9993
2 43077  86.4025  16.6810 0002346  89.9181 270.2283 14.34211602301957
IRIDIUM 153             
1 43078U 17083J   23271.76707572 -.00000129  00000+0 -53017-4 0  9990
2 43078  86.4013 345.2369 0002325  86.7175 273.4286 14.34217867303038
IRIDIUM 131             
1 43079U 17083K   23271.80221309  .00000033  00000+0  46774-5 0  9990
2 43079  86.4031  16.8646 0002214  92.1773 267.9676 14.34217469301868
